{
  "type": "FeatureCollection",
  "features": [
    {
      "type": "Feature",
      "properties": {
        "norad_id": 41866,
        "name": "GOES 16",
        "group": "weather",
        "lat": 0.07655936459244232,
        "lon": -164.70605910767065,
        "alt_km": 35782.088111455116,
        "timestamp": "2025-12-27T13:34:48.932800+00:00",
        "meta_object_name": "GOES 16",
        "meta_object_id": "2016-071A",
        "meta_epoch": "2025-12-27T05:39:25.020000",
        "meta_mean_motion": 1.0027157,
        "meta_eccentricity": 0.00032991,
        "meta_inclination": 0.081,
        "meta_ra_of_asc_node": 100.589,
        "meta_arg_of_pericenter": 167.8196,
        "meta_mean_anomaly": 167.7541,
        "meta_ephemeris_type": 0,
        "meta_classification_type": "U",
        "meta_norad_cat_id": 41866,
        "meta_element_set_no": 999,
        "meta_rev_at_epoch": 3337,
        "meta_bstar": 0,
        "meta_mean_motion_dot": -6.9e-07,
        "meta_mean_motion_ddot": 0,
        "tle_line1": "1 41866U 16071A   25361.23570625 -.00000069  00000+0  00000+0 0  9991",
        "tle_line2": "2 41866   0.0810 100.5890 0003299 167.8196 167.7541  1.00271570 33370"
      },
      "geometry": {
        "type": "Point",
        "coordinates": [
          -164.70605910767065,
          0.07655936459244232
        ]
      }
    },
    {
      "type": "Feature",
      "properties": {
        "norad_id": 41882,
        "name": "FENGYUN 4A",
        "group": "weather",
        "lat": -0.5890901223599281,
        "lon": 63.57562795568036,
        "alt_km": 35804.25458912427,
        "timestamp": "2025-12-27T13:34:48.932812+00:00",
        "meta_object_name": "FENGYUN 4A",
        "meta_object_id": "2016-077A",
        "meta_epoch": "2025-12-27T06:44:33.781920",
        "meta_mean_motion": 1.00279525,
        "meta_eccentricity": 0.0005407,
        "meta_inclination": 1.8837,
        "meta_ra_of_asc_node": 82.2628,
        "meta_arg_of_pericenter": 133.7835,
        "meta_mean_anomaly": 104.7029,
        "meta_ephemeris_type": 0,
        "meta_classification_type": "U",
        "meta_norad_cat_id": 41882,
        "meta_element_set_no": 999,
        "meta_rev_at_epoch": 3320,
        "meta_bstar": 0,
        "meta_mean_motion_dot": -3.35e-06,
        "meta_mean_motion_ddot": 0,
        "tle_line1": "1 41882U 16077A   25361.28094655 -.00000335  00000+0  00000+0 0  9990",
        "tle_line2": "2 41882   1.8837  82.2628 0005407 133.7835 104.7029  1.00279525 33208"
      },
      "geometry": {
        "type": "Point",
        "coordinates": [
          63.57562795568036,
          -0.5890901223599281
        ]
      }
    },
    {
      "type": "Feature",
      "properties": {
        "norad_id": 41884,
        "name": "CYGFM05",
        "group": "weather",
        "lat": -21.756657763129894,
        "lon": -84.58999775294718,
        "alt_km": 416.2699394991423,
        "timestamp": "2025-12-27T13:34:48.932823+00:00",
        "meta_object_name": "CYGFM05",
        "meta_object_id": "2016-078A",
        "meta_epoch": "2025-12-27T06:00:55.835136",
        "meta_mean_motion": 15.48197192,
        "meta_eccentricity": 0.00102905,
        "meta_inclination": 34.9601,
        "meta_ra_of_asc_node": 312.3059,
        "meta_arg_of_pericenter": 307.7355,
        "meta_mean_anomaly": 52.2433,
        "meta_ephemeris_type": 0,
        "meta_classification_type": "U",
        "meta_norad_cat_id": 41884,
        "meta_element_set_no": 999,
        "meta_rev_at_epoch": 50201,
        "meta_bstar": 0.00041710382,
        "meta_mean_motion_dot": 0.00022691,
        "meta_mean_motion_ddot": 0,
        "tle_line1": "1 41884U 16078A   25361.25064624  .00022691  00000+0  41710-3 0  9998",
        "tle_line2": "2 41884  34.9601 312.3059 0010290 307.7355  52.2433 15.48197192502019"
      },
      "geometry": {
        "type": "Point",
        "coordinates": [
          -84.58999775294718,
          -21.756657763129894
        ]
      }
    },
    {
      "type": "Feature",
      "properties": {
        "norad_id": 41885,
        "name": "CYGFM04",
        "group": "weather",
        "lat": -7.3275132977169894,
        "lon": -86.02830830546182,
        "alt_km": 407.70762304434993,
        "timestamp": "2025-12-27T13:34:48.932834+00:00",
        "meta_object_name": "CYGFM04",
        "meta_object_id": "2016-078B",
        "meta_epoch": "2025-12-27T04:22:00.452352",
        "meta_mean_motion": 15.50997667,
        "meta_eccentricity": 0.00087783,
        "meta_inclination": 34.9347,
        "meta_ra_of_asc_node": 287.1088,
        "meta_arg_of_pericenter": 332.0064,
        "meta_mean_anomaly": 28.0186,
        "meta_ephemeris_type": 0,
        "meta_classification_type": "U",
        "meta_norad_cat_id": 41885,
        "meta_element_set_no": 999,
        "meta_rev_at_epoch": 50218,
        "meta_bstar": 0.00042228229,
        "meta_mean_motion_dot": 0.00025367,
        "meta_mean_motion_ddot": 0,
        "tle_line1": "1 41885U 16078B   25361.18194968  .00025367  00000+0  42228-3 0  9994",
        "tle_line2": "2 41885  34.9347 287.1088 0008778 332.0064  28.0186 15.50997667502186"
      },
      "geometry": {
        "type": "Point",
        "coordinates": [
          -86.02830830546182,
          -7.3275132977169894
        ]
      }
    },
    {
      "type": "Feature",
      "properties": {
        "norad_id": 41886,
        "name": "CYGFM02",
        "group": "weather",
        "lat": 33.6407945068154,
        "lon": -4.915481192916964,
        "alt_km": 404.2950587864152,
        "timestamp": "2025-12-27T13:34:48.932844+00:00",
        "meta_object_name": "CYGFM02",
        "meta_object_id": "2016-078C",
        "meta_epoch": "2025-12-27T05:32:27.052224",
        "meta_mean_motion": 15.52425809,
        "meta_eccentricity": 0.00103437,
        "meta_inclination": 34.9434,
        "meta_ra_of_asc_node": 284.9233,
        "meta_arg_of_pericenter": 334.4073,
        "meta_mean_anomaly": 25.6137,
        "meta_ephemeris_type": 0,
        "meta_classification_type": "U",
        "meta_norad_cat_id": 41886,
        "meta_element_set_no": 999,
        "meta_rev_at_epoch": 50232,
        "meta_bstar": 0.0004287551,
        "meta_mean_motion_dot": 0.0002714,
        "meta_mean_motion_ddot": 0,
        "tle_line1": "1 41886U 16078C   25361.23086866  .00027140  00000+0  42876-3 0  9998",
        "tle_line2": "2 41886  34.9434 284.9233 0010343 334.4073  25.6137 15.52425809502329"
      },
      "geometry": {
        "type": "Point",
        "coordinates": [
          -4.915481192916964,
          33.6407945068154
        ]
      }
    },
    {
      "type": "Feature",
      "properties": {
        "norad_id": 41887,
        "name": "CYGFM01",
        "group": "weather",
        "lat": 19.43709471006479,
        "lon": -17.153321749750425,
        "alt_km": 416.5518484265858,
        "timestamp": "2025-12-27T13:34:48.932855+00:00",
        "meta_object_name": "CYGFM01",
        "meta_object_id": "2016-078D",
        "meta_epoch": "2025-12-27T05:41:34.078272",
        "meta_mean_motion": 15.48792617,
        "meta_eccentricity": 0.00100848,
        "meta_inclination": 34.9433,
        "meta_ra_of_asc_node": 314.6401,
        "meta_arg_of_pericenter": 299.9783,
        "meta_mean_anomaly": 59.9938,
        "meta_ephemeris_type": 0,
        "meta_classification_type": "U",
        "meta_norad_cat_id": 41887,
        "meta_element_set_no": 999,
        "meta_rev_at_epoch": 50195,
        "meta_bstar": 0.00040972641,
        "meta_mean_motion_dot": 0.0002276,
        "meta_mean_motion_ddot": 0,
        "tle_line1": "1 41887U 16078D   25361.23719998  .00022760  00000+0  40973-3 0  9997",
        "tle_line2": "2 41887  34.9433 314.6401 0010084 299.9783  59.9938 15.48792617501958"
      },
      "geometry": {
        "type": "Point",
        "coordinates": [
          -17.153321749750425,
          19.43709471006479
        ]
      }
    },
    {
      "type": "Feature",
      "properties": {
        "norad_id": 41888,
        "name": "CYGFM08",
        "group": "weather",
        "lat": 16.85899471091307,
        "lon": 89.58527483318116,
        "alt_km": 420.58308248233425,
        "timestamp": "2025-12-27T13:34:48.932866+00:00",
        "meta_object_name": "CYGFM08",
        "meta_object_id": "2016-078E",
        "meta_epoch": "2025-12-27T05:12:34.738272",
        "meta_mean_motion": 15.50037263,
        "meta_eccentricity": 0.00111588,
        "meta_inclination": 34.9459,
        "meta_ra_of_asc_node": 297.5919,
        "meta_arg_of_pericenter": 323.738,
        "meta_mean_anomaly": 36.2585,
        "meta_ephemeris_type": 0,
        "meta_classification_type": "U",
        "meta_norad_cat_id": 41888,
        "meta_element_set_no": 999,
        "meta_rev_at_epoch": 50218,
        "meta_bstar": 0.0004269891,
        "meta_mean_motion_dot": 0.00024808,
        "meta_mean_motion_ddot": 0,
        "tle_line1": "1 41888U 16078E   25361.21706873  .00024808  00000+0  42699-3 0  9996",
        "tle_line2": "2 41888  34.9459 297.5919 0011158 323.7380  36.2585 15.50037263502186"
      },
      "geometry": {
        "type": "Point",
        "coordinates": [
          89.58527483318116,
          16.85899471091307
        ]
      }
    }
  ]
}